LOPEN                   
1 60473U 24149F   26178.20306320  .00016306  00000+0  41085-3 0  9996
2 60473  97.3785 261.6503 0001676 166.0070 194.1223 15.39968009103808
ROCK                    
1 60474U 24149G   26178.18967790  .00016340  00000+0  41182-3 0  9994
2 60474  97.3780 261.6519 0001973 167.5776 192.5519 15.39959445103804
CONNECTA IOT-3          
1 60475U 24149H   26178.16576652  .00004620  00000+0  19580-3 0  9991
2 60475  97.3738 254.0388 0002177 195.5659 164.5512 15.23625994103327
QUBE                    
1 60476U 24149J   26178.19682030  .00029526  00000+0  57200-3 0  9996
2 60476  97.3783 264.8253 0002554 167.4703 192.6611 15.47663610104017
WREN-1                  
1 60478U 24149L   26178.19454140  .00023970  00000+0  56437-3 0  9995
2 60478  97.3771 262.4140 0004055 207.8580 152.2451 15.41938533103864
TOMORROW-S1             
1 60479U 24149M   26178.18997611  .00008272  00000+0  26311-3 0  9996
2 60479  97.3756 258.6309 0002570 176.4150 183.7111 15.32855865103628
FLOCK 4BE-18            
1 60480U 24149N   26178.20422031  .00018339  00000+0  42929-3 0  9998
2 60480  97.3735 262.0398 0003819 197.2658 162.8460 15.42169070103852
FLOCK 4BE-7             
1 60481U 24149P   26178.22146143  .00021998  00000+0  53971-3 0  9992
2 60481  97.3763 261.3776 0002951 197.1295 162.9852 15.40713830103794
TOMORROW-S2             
1 60485U 24149T   26178.22027486  .00008444  00000+0  26824-3 0  9992
2 60485  97.3822 259.1596 0002107 201.7577 158.3576 15.32891980103625
FLOCK 4BE-36            
1 60486U 24149U   26178.17012797  .00016762  00000+0  38173-3 0  9998
2 60486  97.3750 262.7191 0003293 207.8232 152.2840 15.43016774103897
FLOCK 4BE-25            
1 60487U 24149V   26178.16618712  .00016105  00000+0  41767-3 0  9991
2 60487  97.3803 261.3849 0002314 184.6848 175.4376 15.39085913103774
FLOCK 4BE-31            
1 60488U 24149W   26178.19199309  .00023278  00000+0  50372-3 0  9992
2 60488  97.3802 263.6282 0002365 198.1231 161.9933 15.44470965103929
FLOCK 4BE-20            
1 60489U 24149X   26178.19974226  .00014868  00000+0  39560-3 0  9993
2 60489  97.3702 260.2723 0003434 205.5586 154.5490 15.38309813103759
FLOCK 4BE-23            
1 60490U 24149Y   26178.19250218  .00014657  00000+0  39506-3 0  9999
2 60490  97.3787 260.6470 0002945 209.5231 150.5848 15.37914663103739
FLOCK 4BE-17            
1 60492U 24149AA  26178.22784279  .00016709  00000+0  41955-3 0  9995
2 60492  97.3777 261.6773 0003038 195.2965 164.8189 15.40064915103800
NUSAT-50 (NANCY ROMAN)  
1 60493U 24149AB  26178.17532893  .00010341  00000+0  35822-3 0  9995
2 60493  97.3791 259.3618 0004273 145.8590 214.2926 15.30023690103652
FLOCK 4BE-22            
1 60494U 24149AC  26178.20035847  .00016690  00000+0  40031-3 0  9998
2 60494  97.3739 261.8572 0003208 209.1015 151.0054 15.41457919103843
FLOCK 4BE-34            
1 60495U 24149AD  26178.21759694  .00016826  00000+0  40377-3 0  9997
2 60495  97.3787 262.7035 0003066 217.2158 142.8877 15.41440506103879
TYCHE                   
1 60496U 24149AE  26178.16848519  .00004767  00000+0  18916-3 0  9992
2 60496  97.3758 255.8516 0001661 220.6324 139.4791 15.25833154103422
FLOCK 4BE-32            
1 60497U 24149AF  26178.17955741  .00019106  00000+0  44250-3 0  9993
2 60497  97.3727 262.2161 0003310 213.2429 146.8611 15.42483212103871
NUSAT-48 (HENRIETTA LE*)
1 60498U 24149AG  26178.22932179  .00010081  00000+0  34932-3 0  9999
2 60498  97.3924 259.6766 0002931 222.9994 137.1017 15.30027368103678
FLOCK 4BE-30            
1 60499U 24149AH  26178.21402636  .00160514  00000+0  20188-2 0  9993
2 60499  97.3778 264.0862 0005532 223.5848 136.4972 15.59109665103335
NUSAT-49 (KLARA DAN VO*)
1 60500U 24149AJ  26178.20686277  .00009153  00000+0  31670-3 0  9990
2 60500  97.3786 259.4252 0000779 236.6477 123.4689 15.30103731103663
FLOCK 4BE-11            
1 60501U 24149AK  26178.16887990  .00019577  00000+0  44112-3 0  9997
2 60501  97.3705 262.4449 0003482 214.1705 145.9319 15.43299421103896
YAM-7                   
1 60504U 24149AN  26178.18214261  .00007698  00000+0  25204-3 0  9999
2 60504  97.3792 258.3916 0001974 242.1869 117.9173 15.31949601103586
FLOCK 4BE-24            
1 60505U 24149AP  26178.21954763  .00021262  00000+0  47667-3 0  9992
2 60505  97.3721 262.7561 0003464 227.7238 132.3716 15.43434845103912
LUR-1                   
1 60506U 24149AQ  26178.18367064  .00007297  00000+0  25207-3 0  9999
2 60506  97.3742 256.9397 0002548 264.2159  95.8792 15.30229555103506
TANAGER-1               
1 60507U 24149AR  26178.26452616  .00000378  00000+0  99165-5 0  9996
2 60507  97.2406 272.4919 0002943 269.9285  90.1627 15.44777616104593
